              TDR Cartesian                         TDR Cartesian  
    -----------------------------------       --------------------------------
     X    =       17684677.16                 X    =         5390289.60
     Y    =       -4639112.70  feet           Y    =        -1414001.55  meter
     Z    =      -12708879.33                 Z    =        -3873666.42
     XDOT =      -4602.671256                 XDOT =       -1402.894199
     YDOT =      19469.218135  feet/sec       YDOT =        5934.217688  meter/sec
     ZDOT =     -13516.529036                 ZDOT =       -4119.838050
  
  
    The mean element set is posted at the UTC for which position is
    just north of the next ascending node relative to the above
    vector time
 
 
    TWO LINE MEAN ELEMENT SET
  
    ISS
    1 25544U 98067A   16080.55115210  .00016717  00000-0  10270-3 0  9046
    2 25544  51.6422 140.0927 0001896 328.2885  31.8162 15.54229279 31196
  
  
    Satellite: ISS
    Catalog Number: 25544
    Epoch time:      16080.55115210   =   yrday.fracday
    Element set:     904
    Inclination:       51.6422  deg
    RA of node:       140.0927  deg
    Eccentricity:     .0001896     
    Arg of perigee:   328.2885  deg
    Mean anomaly:      31.8162  deg
    Mean motion:   15.54229279  rev/day
    Decay rate:    1.67170E-04  rev/day^2
    Epoch rev:            3119
    Checksum:              296
 
 
    Coasting Arc #6 (Orbit 3134)
    ---------------------------------------
 
    Vector Time (GMT): 2016/081/12:39:20.524
    Vector Time (MET): N/A
    Weight (LBS)     : 890089.9
 
              M50 Cartesian                         M50 Keplerian  
    -----------------------------------       --------------------------------
     X    =       -4662285.10                 A    =         6778994.56  meter
     Y    =        -684077.45  meter          E    =           .0005597
     Z    =        4869528.66                 I    =           51.88837
     XDOT =       3503.404965                 Wp   =          109.02715
     YDOT =      -6367.341184  meter/sec      RA   =          134.19089  deg
     ZDOT =       2455.733105                 TA   =          316.94308
                                              MA   =          316.98686
                                              Ha   =            220.747  n.mi
                                              Hp   =            214.752
 
              M50 Cartesian                         J2K Cartesian  
    -----------------------------------       --------------------------------
     X    =      -15296210.96                 X    =        -4677942.95
     Y    =       -2244348.59  feet           Y    =         -736301.01  meter
     Z    =       15976143.90                 Z    =         4846842.71
     XDOT =      11494.110778                 XDOT =        3562.416980
     YDOT =     -20890.226981  feet/sec       YDOT =       -6327.833442  meter/sec
     ZDOT =       8056.867141                 ZDOT =        2472.895950
 
              TDR Cartesian                         TDR Cartesian  
    -----------------------------------       --------------------------------
     X    =      -15561022.37                 X    =        -4742999.62
     Y    =          44058.85  feet           Y    =           13429.14  meter
     Z    =       15877688.31                 Z    =         4839519.40
     XDOT =       8251.626336                 XDOT =        2515.095707
     YDOT =     -21209.314839  feet/sec       YDOT =       -6464.599163  meter/sec
     ZDOT =       8132.448152                 ZDOT =        2478.770197
  
  
    The mean element set is posted at the UTC for which position is
    just north of the next ascending node relative to the above
    vector time
 
 
    TWO LINE MEAN ELEMENT SET
  
    ISS
    1 25544U 98067A   16081.57990839  .00016717  00000-0  10270-3 0  9058
    2 25544  51.6415 134.9632 0001955 334.4197  25.6858 15.54261677 31353
  
  
    Satellite: ISS
    Catalog Number: 25544
    Epoch time:      16081.57990839   =   yrday.fracday
    Element set:     905
    Inclination:       51.6415  deg
    RA of node:       134.9632  deg
    Eccentricity:     .0001955     
    Arg of perigee:   334.4197  deg
    Mean anomaly:      25.6858  deg
    Mean motion:   15.54261677  rev/day
    Decay rate:    1.67170E-04  rev/day^2
    Epoch rev:            3135
    Checksum:              335
 
 
    Coasting Arc #7 (Orbit 3149)
    ---------------------------------------
 
    Vector Time (GMT): 2016/082/12:39:20.524
    Vector Time (MET): N/A
    Weight (LBS)     : 890089.9
 
              M50 Cartesian                         M50 Keplerian  
    -----------------------------------       --------------------------------
     X    =        3604722.64                 A    =         6777074.43  meter
     Y    =        2180319.91  meter          E    =           .0014239
     Z    =       -5320798.27                 I    =           51.90426
     XDOT =      -4505.656799                 Wp   =           78.27157
     YDOT =       6170.591122  meter/sec      RA   =          129.20838  deg
     ZDOT =       -522.303811                 TA   =          186.74727
                                              MA   =          186.76646
                                              Ha   =            220.655  n.mi
                                              Hp   =            214.823
 
              M50 Cartesian                         J2K Cartesian  
    -----------------------------------       --------------------------------
     X    =       11826517.85                 X    =         3605919.87
     Y    =        7153280.56  feet           Y    =         2220636.15  meter
     Z    =      -17456687.22                 Z    =        -5303284.96
     XDOT =     -14782.338579                 XDOT =       -4571.785899
     YDOT =      20244.721530  feet/sec       YDOT =        6119.836037  meter/sec
     ZDOT =      -1713.595180                 ZDOT =        -544.352672
 
              TDR Cartesian                         TDR Cartesian  
    -----------------------------------       --------------------------------
     X    =       12949373.77                 X    =         3946969.12
     Y    =        5097888.78  feet           Y    =         1553836.50  meter
     Z    =      -17380941.43                 Z    =        -5297710.95
     XDOT =     -10880.728441                 XDOT =       -3316.446029
     YDOT =      21447.837279  feet/sec       YDOT =        6537.300803  meter/sec
     ZDOT =      -1810.385677                 ZDOT =        -551.805554
  
  
    The mean element set is posted at the UTC for which position is
    just north of the next ascending node relative to the above
    vector time
 
 
    TWO LINE MEAN ELEMENT SET
  
    ISS
    1 25544U 98067A   16082.54435497  .00016717  00000-0  10270-3 0  9061
    2 25544  51.6422 130.1539 0002014 338.1166  21.9900 15.54260205 31509
  
  
    Satellite: ISS
    Catalog Number: 25544
    Epoch time:      16082.54435497   =   yrday.fracday
    Element set:     906
    Inclination:       51.6422  deg
    RA of node:       130.1539  deg
    Eccentricity:     .0002014     
    Arg of perigee:   338.1166  deg
    Mean anomaly:      21.9900  deg
    Mean motion:   15.54260205  rev/day
    Decay rate:    1.67170E-04  rev/day^2
    Epoch rev:            3150
    Checksum:              274
 
 
    Coasting Arc #8 (Orbit 3165)
    ---------------------------------------
 
    Vector Time (GMT): 2016/083/12:39:20.524
    Vector Time (MET): N/A
    Weight (LBS)     : 890089.9
 
              M50 Cartesian                         M50 Keplerian  
    -----------------------------------       --------------------------------
     X    =       -2414522.75                 A    =         6777500.92  meter
     Y    =       -3653138.29  meter          E    =           .0005643
     Z    =        5171118.70                 I    =           51.92449
     XDOT =       5140.549787                 Wp   =           35.32999
     YDOT =      -5497.771157  meter/sec      RA   =          124.22526  deg
     ZDOT =      -1478.362821                 TA   =           68.87227
                                              MA   =           68.81196
                                              Ha   =            220.745  n.mi
                                              Hp   =            214.534
 
              M50 Cartesian                         J2K Cartesian  
    -----------------------------------       --------------------------------
     X    =       -7921662.56                 X    =        -2398612.04
     Y    =      -11985361.85  feet           Y    =        -3680049.29  meter
     Z    =       16965612.52                 Z    =         5159428.80
     XDOT =      16865.320822                 XDOT =        5208.826417
     YDOT =     -18037.306947  feet/sec       YDOT =       -5439.904594  meter/sec
     ZDOT =      -4850.271724                 ZDOT =       -1453.224623
 
              TDR Cartesian                         TDR Cartesian  
    -----------------------------------       --------------------------------
     X    =      -10065688.75                 X    =        -3068021.93
     Y    =      -10333659.90  feet           Y    =        -3149699.54  meter
     Z    =       16915407.99                 Z    =         5155816.36
     XDOT =      12601.333658                 XDOT =        3840.886499
     YDOT =     -20062.316862  feet/sec       YDOT =       -6114.994180  meter/sec
     ZDOT =      -4740.152740                 ZDOT =       -1444.798555
  
  
    The mean element set is posted at the UTC for which position is
    just north of the next ascending node relative to the above
    vector time
 
 
    TWO LINE MEAN ELEMENT SET
  
    ISS
    1 25544U 98067A   16083.57308188  .00016717  00000-0  10270-3 0  9072
    2 25544  51.6408 125.0240 0002054 345.9224  14.1871 15.54313706 31663
  
